NEE-02 KRYSAOR          
1 39441U 13066AB  26068.37805844  .00004234  00000+0  46919-3 0  9992
2 39441  97.8816   8.3817 0067760  38.0821 322.5155 14.86160783661377
STARLINK-34356          
1 64303U 25123N   26068.76288235  .00015967  00000+0  13432-2 0  9994
2 64303  70.0028 194.1022 0003127 278.7060  81.3745 14.98322042 41634
